API VERSION: 1.0
API SOURCE: NASA/JPL Horizons API

*******************************************************************************
 Revised: January 26, 2022             Saturn                               699
 
 PHYSICAL DATA:
  Mass x10^26 (kg)      = 5.6834          Density (g/cm^3)       =  0.687+-.001
  Equat. radius (1 bar) = 60268+-4 km     Polar radius (km)      = 54364+-10
  Vol. Mean Radius (km) = 58232+-6        Flattening             =  0.09796
  Geometric Albedo      = 0.47            Rocky core mass (Mc/M) =  0.1027
  Sid. rot. period (III)= 10h 39m 22.4s   Sid. rot. rate (rad/s) =  0.000163785 
  Mean solar day, hrs   =~10.656         
  GM (km^3/s^2)         = 37931206.234    GM 1-sigma (km^3/s^2)  = +- 98
  Equ. grav, ge (m/s^2) = 10.44           Pol. grav, gp (m/s^2)  = 12.14+-0.01
  Vis. magnitude V(1,0) = -8.88          
  Vis. mag. (opposition)= +0.67           Obliquity to orbit     = 26.73 deg
  Sidereal orbit period = 29.447498 yr    Sidereal orbit period  = 10755.698 d
  Mean daily motion     = 0.0334979 deg/d Mean orbit velocity    =  9.68 km/s
  Atmos. temp. (1 bar)  = 134+-4 K        Escape speed, km/s    =  35.5          
  Aroche(ice)/Rp        =  2.71           Hill's sphere rad. Rp  = 1100
                                 Perihelion  Aphelion    Mean
  Solar Constant (W/m^2)         16.8        13.6        15.1
  Maximum Planetary IR (W/m^2)    4.7         4.5         4.6
  Minimum Planetary IR (W/m^2)    4.7         4.5         4.6
*******************************************************************************


*******************************************************************************
Ephemeris / WWW_USER Sat Oct  5 21:03:39 2024 Pasadena, USA      / Horizons
*******************************************************************************
Target body name: Saturn (699)                    {source: sat441l}
Center body name: Earth (399)                     {source: DE441}
Center-site name: BODY CENTER
*******************************************************************************
Start time      : A.D. 2024-Oct-06 00:00:00.0000 TDB
Stop  time      : A.D. 2024-Oct-07 00:00:00.0000 TDB
Step-size       : 1 minutes
*******************************************************************************
Center geodetic : 0.0, 0.0, 0.0                   {E-lon(deg),Lat(deg),Alt(km)}
Center cylindric: 0.0, 0.0, 0.0                   {E-lon(deg),Dxy(km),Dz(km)}
Center radii    : 6378.137, 6378.137, 6356.752 km {Equator_a, b, pole_c}
Output units    : KM-S
Calendar mode   : Mixed Julian/Gregorian
Output type     : GEOMETRIC cartesian states
Output format   : 3 (position, velocity, LT, range, range-rate)
EOP file        : eop.241004.p241228
EOP coverage    : DATA-BASED 1962-JAN-20 TO 2024-OCT-04. PREDICTS-> 2024-DEC-27
Reference frame : Ecliptic of J2000.0
*******************************************************************************
JDTDB
   X     Y     Z
   VX    VY    VZ
   LT    RG    RR
*******************************************************************************
$$SOE
2460589.627777778 = A.D. 2024-Oct-06 03:04:00.0000 TDB 
 X = 1.258658993689967E+09 Y =-3.684814704205992E+08 Z =-5.007041250655410E+07
 VX= 8.899636524134957E+00 VY=-1.953441539095798E+01 VZ=-2.304761787735599E-01
 LT= 4.377840491571973E+03 RG= 1.312443561700290E+09 RR= 1.402819765615923E+01
2460589.628472222 = A.D. 2024-Oct-06 03:05:00.0000 TDB 
 X = 1.258659527678478E+09 Y =-3.684826424830561E+08 Z =-5.007042633511336E+07
 VX= 8.899980519425473E+00 VY=-1.953433316915153E+01 VZ=-2.304757990546609E-01
 LT= 4.377843299185717E+03 RG= 1.312444403401716E+09 RR= 1.402851652690099E+01
2460589.629166667 = A.D. 2024-Oct-06 03:06:00.0000 TDB 
 X = 1.258660061687629E+09 Y =-3.684838145405794E+08 Z =-5.007044016364993E+07
 VX= 8.900324513836056E+00 VY=-1.953425094304695E+01 VZ=-2.304754192973499E-01
 LT= 4.377846106863279E+03 RG= 1.312445245122273E+09 RR= 1.402883539517675E+01
2460589.629861111 = A.D. 2024-Oct-06 03:07:00.0000 TDB 
 X = 1.258660595717420E+09 Y =-3.684849865931692E+08 Z =-5.007045399216370E+07
 VX= 8.900668507366511E+00 VY=-1.953416871264409E+01 VZ=-2.304750395017132E-01
 LT= 4.377848914604659E+03 RG= 1.312446086861963E+09 RR= 1.402915426098629E+01
2460589.630555556 = A.D. 2024-Oct-06 03:08:00.0000 TDB 
 X = 1.258661129767850E+09 Y =-3.684861586408249E+08 Z =-5.007046782065471E+07
 VX= 8.901012500016630E+00 VY=-1.953408647794278E+01 VZ=-2.304746596678457E-01
 LT= 4.377851722409857E+03 RG= 1.312446928620785E+09 RR= 1.402947312432934E+01
2460589.631250000 = A.D. 2024-Oct-06 03:09:00.0000 TDB 
 X = 1.258661663838920E+09 Y =-3.684873306835464E+08 Z =-5.007048164912288E+07
 VX= 8.901356491786217E+00 VY=-1.953400423894286E+01 VZ=-2.304742797958337E-01
 LT= 4.377854530278871E+03 RG= 1.312447770398738E+09 RR= 1.402979198520566E+01
2460589.631944444 = A.D. 2024-Oct-06 03:10:00.0000 TDB 
 X = 1.258662197930629E+09 Y =-3.684885027213334E+08 Z =-5.007049547756827E+07
 VX= 8.901700482675064E+00 VY=-1.953392199564417E+01 VZ=-2.304738998857649E-01
 LT= 4.377857338211699E+03 RG= 1.312448612195822E+09 RR= 1.403011084361503E+01
2460589.632638889 = A.D. 2024-Oct-06 03:11:00.0000 TDB 
 X = 1.258662732042978E+09 Y =-3.684896747541859E+08 Z =-5.007050930599084E+07
 VX= 8.902044472682977E+00 VY=-1.953383974804655E+01 VZ=-2.304735199377337E-01
 LT= 4.377860146208344E+03 RG= 1.312449454012039E+09 RR= 1.403042969955719E+01
2460589.633333333 = A.D. 2024-Oct-06 03:12:00.0000 TDB 
 X = 1.258663266175966E+09 Y =-3.684908467821032E+08 Z =-5.007052313439065E+07
 VX= 8.902388461809744E+00 VY=-1.953375749614984E+01 VZ=-2.304731399518225E-01
 LT= 4.377862954268805E+03 RG= 1.312450295847387E+09 RR= 1.403074855303190E+01
2460589.634027778 = A.D. 2024-Oct-06 03:13:00.0000 TDB 
 X = 1.258663800329593E+09 Y =-3.684920188050853E+08 Z =-5.007053696276762E+07
 VX= 8.902732450055165E+00 VY=-1.953367523995389E+01 VZ=-2.304727599281211E-01
 LT= 4.377865762393080E+03 RG= 1.312451137701865E+09 RR= 1.403106740403892E+01
2460589.634722222 = A.D. 2024-Oct-06 03:14:00.0000 TDB 
 X = 1.258664334503860E+09 Y =-3.684931908231319E+08 Z =-5.007055079112183E+07
 VX= 8.903076437419035E+00 VY=-1.953359297945854E+01 VZ=-2.304723798667228E-01
 LT= 4.377868570581169E+03 RG= 1.312451979575475E+09 RR= 1.403138625257799E+01
2460589.635416667 = A.D. 2024-Oct-06 03:15:00.0000 TDB 
 X = 1.258664868698765E+09 Y =-3.684943628362427E+08 Z =-5.007056461945324E+07
 VX= 8.903420423901149E+00 VY=-1.953351071466363E+01 VZ=-2.304719997677083E-01
 LT= 4.377871378833071E+03 RG= 1.312452821468215E+09 RR= 1.403170509864890E+01
2460589.636111111 = A.D. 2024-Oct-06 03:16:00.0000 TDB 
 X = 1.258665402914310E+09 Y =-3.684955348444175E+08 Z =-5.007057844776185E+07
 VX= 8.903764409501299E+00 VY=-1.953342844556900E+01 VZ=-2.304716196311674E-01
 LT= 4.377874187148788E+03 RG= 1.312453663380087E+09 RR= 1.403202394225136E+01
2460589.636805556 = A.D. 2024-Oct-06 03:17:00.0000 TDB 
 X = 1.258665937150495E+09 Y =-3.684967068476561E+08 Z =-5.007059227604760E+07
 VX= 8.904108394219278E+00 VY=-1.953334617217450E+01 VZ=-2.304712394571879E-01
 LT= 4.377876995528316E+03 RG= 1.312454505311089E+09 RR= 1.403234278338515E+01
2460589.637500000 = A.D. 2024-Oct-06 03:18:00.0000 TDB 
 X = 1.258666471407318E+09 Y =-3.684978788459581E+08 Z =-5.007060610431057E+07
 VX= 8.904452378054883E+00 VY=-1.953326389447997E+01 VZ=-2.304708592458589E-01
 LT= 4.377879803971657E+03 RG= 1.312455347261221E+09 RR= 1.403266162205002E+01
2460589.638194445 = A.D. 2024-Oct-06 03:19:00.0000 TDB 
 X = 1.258667005684780E+09 Y =-3.684990508393234E+08 Z =-5.007061993255065E+07
 VX= 8.904796361007900E+00 VY=-1.953318161248526E+01 VZ=-2.304704789972609E-01
 LT= 4.377882612478807E+03 RG= 1.312456189230483E+09 RR= 1.403298045824573E+01
2460589.638888889 = A.D. 2024-Oct-06 03:20:00.0000 TDB 
 X = 1.258667539982881E+09 Y =-3.685002228277515E+08 Z =-5.007063376076803E+07
 VX= 8.905140343078124E+00 VY=-1.953309932619022E+01 VZ=-2.304700987114776E-01
 LT= 4.377885421049771E+03 RG= 1.312457031218876E+09 RR= 1.403329929197201E+01
2460589.639583333 = A.D. 2024-Oct-06 03:21:00.0000 TDB 
 X = 1.258668074301621E+09 Y =-3.685013948112424E+08 Z =-5.007064758896251E+07
 VX= 8.905484324265343E+00 VY=-1.953301703559469E+01 VZ=-2.304697183886013E-01
 LT= 4.377888229684545E+03 RG= 1.312457873226398E+09 RR= 1.403361812322864E+01
2460589.640277778 = A.D. 2024-Oct-06 03:22:00.0000 TDB 
 X = 1.258668608641000E+09 Y =-3.685025667897956E+08 Z =-5.007066141713423E+07
 VX= 8.905828304569349E+00 VY=-1.953293474069851E+01 VZ=-2.304693380287199E-01
 LT= 4.377891038383128E+03 RG= 1.312458715253050E+09 RR= 1.403393695201535E+01
2460589.640972222 = A.D. 2024-Oct-06 03:23:00.0000 TDB 
 X = 1.258669143001018E+09 Y =-3.685037387634112E+08 Z =-5.007067524528310E+07
 VX= 8.906172283989932E+00 VY=-1.953285244150154E+01 VZ=-2.304689576319081E-01
 LT= 4.377893847145522E+03 RG= 1.312459557298832E+09 RR= 1.403425577833191E+01
2460589.641666667 = A.D. 2024-Oct-06 03:24:00.0000 TDB 
 X = 1.258669677381674E+09 Y =-3.685049107320886E+08 Z =-5.007068907340918E+07
 VX= 8.906516262526878E+00 VY=-1.953277013800362E+01 VZ=-2.304685771982582E-01
 LT= 4.377896655971726E+03 RG= 1.312460399363744E+09 RR= 1.403457460217805E+01
2460589.642361111 = A.D. 2024-Oct-06 03:25:00.0000 TDB 
 X = 1.258670211782969E+09 Y =-3.685060826958277E+08 Z =-5.007070290151234E+07
 VX= 8.906860240179977E+00 VY=-1.953268783020461E+01 VZ=-2.304681967278501E-01
 LT= 4.377899464861737E+03 RG= 1.312461241447785E+09 RR= 1.403489342355353E+01
2460589.643055555 = A.D. 2024-Oct-06 03:26:00.0000 TDB 
 X = 1.258670746204903E+09 Y =-3.685072546546281E+08 Z =-5.007071672959274E+07
 VX= 8.907204216949015E+00 VY=-1.953260551810435E+01 VZ=-2.304678162207674E-01
 LT= 4.377902273815556E+03 RG= 1.312462083550955E+09 RR= 1.403521224245810E+01
